0 NIMIQ 1
1 25740U 99027A   13280.33765215 -.00000207  00000-0  00000+0 0  4210
2 25740 000.0430 062.2207 0003915 122.3929 226.6249 01.00272284 52725
0 NIMIQ 1
1 25740U 99027A   13281.46189230 -.00000210  00000-0  00000+0 0  4227
2 25740 000.0466 056.2889 0003912 128.6258 272.1568 01.00271968 52733
0 NIMIQ 1
1 25740U 99027A   13282.54117637 -.00000213  00000-0  00000+0 0  4233
2 25740 000.0486 049.1422 0003671 139.3889 298.1330 01.00270957 52743
0 NIMIQ 1
1 25740U 99027A   13285.50020233 -.00000221  00000-0  00000+0 0  4247
2 25740 000.0494 052.0618 0003863 137.4113 285.3360 01.00269641 52776
0 NIMIQ 1
1 25740U 99027A   13286.51375580 -.00000223  00000-0  00000+0 0  4250
2 25740 000.0490 051.5966 0004262 138.3817 290.7036 01.00269350 52785
0 NIMIQ 1
1 25740U 99027A   13287.52806789 -.00000223  00000-0  00000+0 0  4263
2 25740 000.0506 051.5532 0004274 138.5184 296.7516 01.00269038 52797
0 NIMIQ 1
1 25740U 99027A   13288.36000253 -.00000223  00000-0  00000+0 0  4279
2 25740 000.0527 053.3944 0004124 140.8623 232.8782 01.00269323 52800
0 NIMIQ 1
1 25740U 99027A   13289.94273093 -.00000221  00000-0  00000+0 0  4287
2 25740 000.0542 055.3937 0005167 144.0480 079.0360 01.00269429 52817
0 NIMIQ 1
1 25740U 99027A   13293.55669264 -.00000215  00000-0  00000+0 0  4292
2 25740 000.0624 059.7486 0004583 138.0977 305.2572 01.00273699 52857
